{"type": "FeatureCollection", "features": [ {"type": "Feature", "properties": {"norad_id": 43108, "name": "BEIDOU-3 M8 (C28)", "group": "beidou", "lat": 43.51965769713759, "lon": -9.000996770153966, "alt_km": 21532.335300397284, "timestamp": "2025-12-25T09:48:52.555752+00:00", "meta": {"OBJECT_NAME": "BEIDOU-3 M8 (C28)", "OBJECT_ID": "2018-003B", "EPOCH": "2025-12-24T05:58:21.185184", "MEAN_MOTION": 1.86231107, "ECCENTRICITY": 0.00045887, "INCLINATION": 54.4794, "RA_OF_ASC_NODE": 308.398, "ARG_OF_PERICENTER": 279.3969, "MEAN_ANOMALY": 80.5568, "EPHEMERIS_TYPE": 0, "CLASSIFICATION_TYPE": "U", "NORAD_CAT_ID": 43108, "ELEMENT_SET_NO": 999, "REV_AT_EPOCH": 5410, "BSTAR": 0, "MEAN_MOTION_DOT": -5.4e-07, "MEAN_MOTION_DDOT": 0}, "tle": {"line1": "1 43108U 18003B   25358.24885631 -.00000054  00000+0  00000+0 0  9996", "line2": "2 43108  54.4794 308.3980 0004588 279.3969  80.5568  1.86231107 54103"}}, "geometry": {"type": "Point", "coordinates": [-9.000996770153966, 43.51965769713759]}}, {"type": "Feature", "properties": {"norad_id": 43207, "name": "BEIDOU-3 M4 (C22)", "group": "beidou", "lat": 45.318604417396806, "lon": -153.0871093722511, "alt_km": 21528.142382532442, "timestamp": "2025-12-25T09:48:52.555763+00:00", "meta": {"OBJECT_NAME": "BEIDOU-3 M4 (C22)", "OBJECT_ID": "2018-018A", "EPOCH": "2025-12-24T16:34:51.783168", "MEAN_MOTION": 1.86231226, "ECCENTRICITY": 0.0004181, "INCLINATION": 56.4953, "RA_OF_ASC_NODE": 68.9094, "ARG_OF_PERICENTER": 3.1896, "MEAN_ANOMALY": 356.8673, "EPHEMERIS_TYPE": 0, "CLASSIFICATION_TYPE": "U", "NORAD_CAT_ID": 43207, "ELEMENT_SET_NO": 999, "REV_AT_EPOCH": 5349, "BSTAR": 0, "MEAN_MOTION_DOT": -2.4e-07, "MEAN_MOTION_DDOT": 0}, "tle": {"line1": "1 43207U 18018A   25358.69087712 -.00000024  00000+0  00000+0 0  9992", "line2": "2 43207  56.4953  68.9094 0004181   3.1896 356.8673  1.86231226 53497"}}, "geometry": {"type": "Point", "coordinates": [-153.0871093722511, 45.318604417396806]}}, {"type": "Feature", "properties": {"norad_id": 43208, "name": "BEIDOU-3 M3 (C21)", "group": "beidou", "lat": 54.30969522969491, "lon": 135.98994342540655, "alt_km": 21532.515409711254, "timestamp": "2025-12-25T09:48:52.555774+00:00", "meta": {"OBJECT_NAME": "BEIDOU-3 M3 (C21)", "OBJECT_ID": "2018-018B", "EPOCH": "2025-12-24T05:17:24.775296", "MEAN_MOTION": 1.86231452, "ECCENTRICITY": 0.00071097, "INCLINATION": 56.4941, "RA_OF_ASC_NODE": 68.9291, "ARG_OF_PERICENTER": 313.8135, "MEAN_ANOMALY": 46.182, "EPHEMERIS_TYPE": 0, "CLASSIFICATION_TYPE": "U", "NORAD_CAT_ID": 43208, "ELEMENT_SET_NO": 999, "REV_AT_EPOCH": 5348, "BSTAR": 0, "MEAN_MOTION_DOT": -2.4e-07, "MEAN_MOTION_DDOT": 0}, "tle": {"line1": "1 43208U 18018B   25358.22042564 -.00000024  00000+0  00000+0 0  9998", "line2": "2 43208  56.4941  68.9291 0007109 313.8135  46.1820  1.86231452 53487"}}, "geometry": {"type": "Point", "coordinates": [135.98994342540655, 54.30969522969491]}}, {"type": "Feature", "properties": {"norad_id": 43245, "name": "BEIDOU-3 M9 (C29)", "group": "beidou", "lat": -48.98497904682987, "lon": -109.49413221704329, "alt_km": 21529.4297755584, "timestamp": "2025-12-25T09:48:52.555785+00:00", "meta": {"OBJECT_NAME": "BEIDOU-3 M9 (C29)", "OBJECT_ID": "2018-029A", "EPOCH": "2025-12-24T23:22:05.655648", "MEAN_MOTION": 1.86228303, "ECCENTRICITY": 0.0001557, "INCLINATION": 54.3546, "RA_OF_ASC_NODE": 306.0421, "ARG_OF_PERICENTER": 290.0356, "MEAN_ANOMALY": 69.9568, "EPHEMERIS_TYPE": 0, "CLASSIFICATION_TYPE": "U", "NORAD_CAT_ID": 43245, "ELEMENT_SET_NO": 999, "REV_AT_EPOCH": 5265, "BSTAR": 0, "MEAN_MOTION_DOT": -5.2e-07, "MEAN_MOTION_DDOT": 0}, "tle": {"line1": "1 43245U 18029A   25358.97367657 -.00000052  00000+0  00000+0 0  9997", "line2": "2 43245  54.3546 306.0421 0001557 290.0356  69.9568  1.86228303 52650"}}, "geometry": {"type": "Point", "coordinates": [-109.49413221704329, -48.98497904682987]}}, {"type": "Feature", "properties": {"norad_id": 43246, "name": "BEIDOU-3 M10 (C30)", "group": "beidou", "lat": -19.893599358968007, "lon": -68.9989158875393, "alt_km": 21520.33808194329, "timestamp": "2025-12-25T09:48:52.555796+00:00", "meta": {"OBJECT_NAME": "BEIDOU-3 M10 (C30)", "OBJECT_ID": "2018-029B", "EPOCH": "2025-12-23T07:09:06.922656", "MEAN_MOTION": 1.86229257, "ECCENTRICITY": 0.00043036, "INCLINATION": 54.3535, "RA_OF_ASC_NODE": 306.127, "ARG_OF_PERICENTER": 3.3658, "MEAN_ANOMALY": 356.6419, "EPHEMERIS_TYPE": 0, "CLASSIFICATION_TYPE": "U", "NORAD_CAT_ID": 43246, "ELEMENT_SET_NO": 999, "REV_AT_EPOCH": 5260, "BSTAR": 0, "MEAN_MOTION_DOT": -5.3e-07, "MEAN_MOTION_DDOT": 0}, "tle": {"line1": "1 43246U 18029B   25357.29799679 -.00000053  00000+0  00000+0 0  9996", "line2": "2 43246  54.3535 306.1270 0004303   3.3658 356.6419  1.86229257 52609"}}, "geometry": {"type": "Point", "coordinates": [-68.9989158875393, -19.893599358968007]}}, {"type": "Feature", "properties": {"norad_id": 43539, "name": "BEIDOU-2 IGSO-7 (C16)", "group": "beidou", "lat": -5.062790790397106, "lon": -11.914185824394785, "alt_km": 35532.93541412231, "timestamp": "2025-12-25T09:48:52.555807+00:00", "meta": {"OBJECT_NAME": "BEIDOU-2 IGSO-7 (C16)", "OBJECT_ID": "2018-057A", "EPOCH": "2025-12-23T21:03:51.666912", "MEAN_MOTION": 1.00254881, "ECCENTRICITY": 0.00930582, "INCLINATION": 55.1784, "RA_OF_ASC_NODE": 164.5741, "ARG_OF_PERICENTER": 235.1099, "MEAN_ANOMALY": 119.1175, "EPHEMERIS_TYPE": 0, "CLASSIFICATION_TYPE": "U", "NORAD_CAT_ID": 43539, "ELEMENT_SET_NO": 999, "REV_AT_EPOCH": 2736, "BSTAR": 0, "MEAN_MOTION_DOT": -6.1e-07, "MEAN_MOTION_DDOT": 0}, "tle": {"line1": "1 43539U 18057A   25357.87768133 -.00000061  00000+0  00000+0 0  9996", "line2": "2 43539  55.1784 164.5741 0093058 235.1099 119.1175  1.00254881 27360"}}, "geometry": {"type": "Point", "coordinates": [-11.914185824394785, -5.062790790397106]}}, {"type": "Feature", "properties": {"norad_id": 43581, "name": "BEIDOU-3 M5 (C23)", "group": "beidou", "lat": -3.8481021721242765, "lon": 11.009812703073976, "alt_km": 21534.374195545803, "timestamp": "2025-12-25T09:48:52.555818+00:00", "meta": {"OBJECT_NAME": "BEIDOU-3 M5 (C23)", "OBJECT_ID": "2018-062A", "EPOCH": "2025-12-24T01:25:43.982112", "MEAN_MOTION": 1.86228769, "ECCENTRICITY": 0.0001922, "INCLINATION": 54.09, "RA_OF_ASC_NODE": 188.2582, "ARG_OF_PERICENTER": 1.0455, "MEAN_ANOMALY": 358.9913, "EPHEMERIS_TYPE": 0, "CLASSIFICATION_TYPE": "U", "NORAD_CAT_ID": 43581, "ELEMENT_SET_NO": 999, "REV_AT_EPOCH": 5037, "BSTAR": 0, "MEAN_MOTION_DOT": 1.01e-06, "MEAN_MOTION_DDOT": 0}, "tle": {"line1": "1 43581U 18062A   25358.05953683  .00000101  00000+0  00000+0 0  9990", "line2": "2 43581  54.0900 188.2582 0001922   1.0455 358.9913  1.86228769 50376"}}, "geometry": {"type": "Point", "coordinates": [11.009812703073976, -3.8481021721242765]}}, {"type": "Feature", "properties": {"norad_id": 43582, "name": "BEIDOU-3 M6 (C24)", "group": "beidou", "lat": -53.54367959078114, "lon": 109.31386993175228, "alt_km": 21548.843346188, "timestamp": "2025-12-25T09:48:52.555830+00:00", "meta": {"OBJECT_NAME": "BEIDOU-3 M6 (C24)", "OBJECT_ID": "2018-062B", "EPOCH": "2025-12-23T22:08:28.739040", "MEAN_MOTION": 1.86229712, "ECCENTRICITY": 0.00078704, "INCLINATION": 54.0895, "RA_OF_ASC_NODE": 188.252, "ARG_OF_PERICENTER": 49.2706, "MEAN_ANOMALY": 310.8346, "EPHEMERIS_TYPE": 0, "CLASSIFICATION_TYPE": "U", "NORAD_CAT_ID": 43582, "ELEMENT_SET_NO": 999, "REV_AT_EPOCH": 5037, "BSTAR": 0, "MEAN_MOTION_DOT": 1e-06, "MEAN_MOTION_DDOT": 0}, "tle": {"line1": "1 43582U 18062B   25357.92255485  .00000100  00000+0  00000+0 0  9990", "line2": "2 43582  54.0895 188.2520 0007870  49.2706 310.8346  1.86229712 50379"}}, "geometry": {"type": "Point", "coordinates": [109.31386993175228, -53.54367959078114]}}, {"type": "Feature", "properties": {"norad_id": 43602, "name": "BEIDOU-3 M12 (C26)", "group": "beidou", "lat": -32.763184950177, "lon": 159.23025486451644, "alt_km": 21529.563258490998, "timestamp": "2025-12-25T09:48:52.555841+00:00", "meta": {"OBJECT_NAME": "BEIDOU-3 M12 (C26)", "OBJECT_ID": "2018-067A", "EPOCH": "2025-12-24T22:25:33.195936", "MEAN_MOTION": 1.86227842, "ECCENTRICITY": 0.0009239, "INCLINATION": 54.1837, "RA_OF_ASC_NODE": 186.9493, "ARG_OF_PERICENTER": 41.7428, "MEAN_ANOMALY": 318.3597, "EPHEMERIS_TYPE": 0, "CLASSIFICATION_TYPE": "U", "NORAD_CAT_ID": 43602, "ELEMENT_SET_NO": 999, "REV_AT_EPOCH": 4987, "BSTAR": 0, "MEAN_MOTION_DOT": 1.08e-06, "MEAN_MOTION_DDOT": 0}, "tle": {"line1": "1 43602U 18067A   25358.93441199  .00000108  00000+0  00000+0 0  9997", "line2": "2 43602  54.1837 186.9493 0009239  41.7428 318.3597  1.86227842 49878"}}, "geometry": {"type": "Point", "coordinates": [159.23025486451644, -32.763184950177]}}, {"type": "Feature", "properties": {"norad_id": 43603, "name": "BEIDOU-3 M11 (C25)", "group": "beidou", "lat": -37.04854137437225, "lon": 39.95167902490483, "alt_km": 21548.353761857466, "timestamp": "2025-12-25T09:48:52.555853+00:00", "meta": {"OBJECT_NAME": "BEIDOU-3 M11 (C25)", "OBJECT_ID": "2018-067B", "EPOCH": "2025-12-24T12:46:04.310976", "MEAN_MOTION": 1.86227356, "ECCENTRICITY": 0.00056287, "INCLINATION": 54.181, "RA_OF_ASC_NODE": 186.927, "ARG_OF_PERICENTER": 37.873, "MEAN_ANOMALY": 322.1992, "EPHEMERIS_TYPE": 0, "CLASSIFICATION_TYPE": "U", "NORAD_CAT_ID": 43603, "ELEMENT_SET_NO": 999, "REV_AT_EPOCH": 4989, "BSTAR": 0, "MEAN_MOTION_DOT": 1.05e-06, "MEAN_MOTION_DDOT": 0}, "tle": {"line1": "1 43603U 18067B   25358.53199434  .00000105  00000+0  00000+0 0  9993", "line2": "2 43603  54.1810 186.9270 0005628  37.8730 322.1992  1.86227356 49897"}}, "geometry": {"type": "Point", "coordinates": [39.95167902490483, -37.04854137437225]}}]}